{
    "links": {
        "self": "http://www.neowsapp.com/rest/v1/neo/3147545?api_key=iIulBulltgU6a56xZRHN4H3l9WmuAYTsLGpBGhQ2"
    },
    "id": "3147545",
    "neo_reference_id": "3147545",
    "name": "(2003 BS35)",
    "designation": "2003 BS35",
    "nasa_jpl_url": "http://ssd.jpl.nasa.gov/sbdb.cgi?sstr=3147545",
    "absolute_magnitude_h": 24.7,
    "estimated_diameter": {
        "kilometers": {
            "estimated_diameter_min": 0.0305179233,
            "estimated_diameter_max": 0.0682401509
        },
        "meters": {
            "estimated_diameter_min": 30.5179232594,
            "estimated_diameter_max": 68.2401509401
        },
        "miles": {
            "estimated_diameter_min": 0.0189629525,
            "estimated_diameter_max": 0.0424024508
        },
        "feet": {
            "estimated_diameter_min": 100.1244233463,
            "estimated_diameter_max": 223.8850168104
        }
    },
    "is_potentially_hazardous_asteroid": false,
    "close_approach_data": [
        {
            "close_approach_date": "2003-01-30",
            "close_approach_date_full": "2003-Jan-30 02:37",
            "epoch_date_close_approach": 1043894220000,
            "relative_velocity": {
                "kilometers_per_second": "5.95048054",
                "kilometers_per_hour": "21421.7299441745",
                "miles_per_hour": "13310.6299200344"
            },
            "miss_distance": {
                "astronomical": "0.0339398177",
                "lunar": "13.2025890853",
                "kilometers": "5077324.436108299",
                "miles": "3154903.1097965662"
            },
            "orbiting_body": "Earth"
        }
    ],
    "orbital_data": {
        "orbit_id": "8",
        "orbit_determination_date": "2017-04-06 09:14:24",
        "first_observation_date": "2003-01-27",
        "last_observation_date": "2003-02-07",
        "data_arc_in_days": 11,
        "observations_used": 13,
        "orbit_uncertainty": "8",
        "minimum_orbit_intersection": ".0262718",
        "jupiter_tisserand_invariant": "5.097",
        "epoch_osculation": "2452670.5",
        "eccentricity": ".2066516997430353",
        "semi_major_axis": "1.255005313075666",
        "inclination": "8.481792101202615",
        "ascending_node_longitude": "127.4495668379655",
        "orbital_period": "513.5311276824597",
        "perihelion_distance": ".9956563319420396",
        "perihelion_argument": "27.11517399195672",
        "aphelion_distance": "1.514354294209293",
        "perihelion_time": "2452691.453747130239",
        "mean_anomaly": "345.3108242903818",
        "mean_motion": ".7010285854036971",
        "equinox": "J2000",
        "orbit_class": {
            "orbit_class_type": "APO",
            "orbit_class_description": "Near-Earth asteroid orbits which cross the Earth’s orbit similar to that of 1862 Apollo",
            "orbit_class_range": "a (semi-major axis) > 1.0 AU; q (perihelion) < 1.017 AU"
        }
    },
    "is_sentry_object": false
}